{
    "links": {
        "self": "http://www.neowsapp.com/rest/v1/neo/3545556?api_key=iIulBulltgU6a56xZRHN4H3l9WmuAYTsLGpBGhQ2"
    },
    "id": "3545556",
    "neo_reference_id": "3545556",
    "name": "(2010 RV30)",
    "designation": "2010 RV30",
    "nasa_jpl_url": "http://ssd.jpl.nasa.gov/sbdb.cgi?sstr=3545556",
    "absolute_magnitude_h": 24.0,
    "estimated_diameter": {
        "kilometers": {
            "estimated_diameter_min": 0.0421264611,
            "estimated_diameter_max": 0.0941976306
        },
        "meters": {
            "estimated_diameter_min": 42.1264610556,
            "estimated_diameter_max": 94.1976305719
        },
        "miles": {
            "estimated_diameter_min": 0.0261761612,
            "estimated_diameter_max": 0.0585316759
        },
        "feet": {
            "estimated_diameter_min": 138.2101784897,
            "estimated_diameter_max": 309.0473542854
        }
    },
    "is_potentially_hazardous_asteroid": false,
    "close_approach_data": [
        {
            "close_approach_date": "2010-09-12",
            "close_approach_date_full": "2010-Sep-12 15:05",
            "epoch_date_close_approach": 1284303900000,
            "relative_velocity": {
                "kilometers_per_second": "3.0805530344",
                "kilometers_per_hour": "11089.9909239884",
                "miles_per_hour": "6890.8890827415"
            },
            "miss_distance": {
                "astronomical": "0.1857975755",
                "lunar": "72.2752568695",
                "kilometers": "27794921.545964185",
                "miles": "17270963.383448353"
            },
            "orbiting_body": "Earth"
        }
    ],
    "orbital_data": {
        "orbit_id": "11",
        "orbit_determination_date": "2017-04-06 08:56:50",
        "first_observation_date": "2010-09-04",
        "last_observation_date": "2010-10-02",
        "data_arc_in_days": 28,
        "observations_used": 38,
        "orbit_uncertainty": "8",
        "minimum_orbit_intersection": ".183829",
        "jupiter_tisserand_invariant": "3.636",
        "epoch_osculation": "2455451.5",
        "eccentricity": ".4300093111898519",
        "semi_major_axis": "2.087641504454135",
        "inclination": ".2736598858953901",
        "ascending_node_longitude": "224.7774859848651",
        "orbital_period": "1101.748100952638",
        "perihelion_distance": "1.189936219112466",
        "perihelion_argument": "127.0610787031598",
        "aphelion_distance": "2.985346789795804",
        "perihelion_time": "2455452.950450713124",
        "mean_anomaly": "359.5260602162389",
        "mean_motion": ".3267534563379073",
        "equinox": "J2000",
        "orbit_class": {
            "orbit_class_type": "AMO",
            "orbit_class_description": "Near-Earth asteroid orbits similar to that of 1221 Amor",
            "orbit_class_range": "1.017 AU < q (perihelion) < 1.3 AU"
        }
    },
    "is_sentry_object": false
}